PROXIMA I               
1 43694U 18088E   22048.40838672  .00005603  00000+0  22617-3 0  9999
2 43694  85.0306  32.8617 0017389 189.0706 171.0226 15.24403930181668
PROXIMA II              
1 43696U 18088G   22047.94791392  .00005806  00000+0  23452-3 0  9999
2 43696  85.0306  33.1818 0017370 190.8239 169.2634 15.24390634181598
FACSAT-1                
1 43721U 18096C   22048.53950407  .00013767  00000+0  44948-3 0  9995
2 43721  97.3626 128.8692 0016911 119.9655   4.3381 15.31739623179592
CENTAURI-2              
1 43722U 18096D   22048.19150444  .00016460  00000+0  50507-3 0  9992
2 43722  97.3663 129.9610 0015760 117.9124 242.3717 15.33701762179611
INNOSAT-2               
1 43738U 18096V   22048.56161543  .00025813  00000+0  66268-3 0  9995
2 43738  97.3754 135.9007 0018943 112.3010  11.7918 15.39115075180014
SIRION PATHFINDER-2     
1 43759U 18099B   22048.18647058  .00001283  00000+0  11973-3 0  9997
2 43759  97.6355 118.0589 0012964 307.5711  52.4332 14.95872585175065
CORVUS BC4              
1 43767U 18099K   22047.89178530  .00000871  00000+0  84160-4 0  9998
2 43767  97.6323 116.4493 0010605 316.6951  43.3435 14.95284485174958
MOVE-II                 
1 43780U 18099Y   22048.44800659  .00002668  00000+0  23848-3 0  9990
2 43780  97.6386 118.7644 0012307 316.8439  43.1817 14.96674227175107
SPACEBEE-7              
1 43816U 18099BL  22048.16726027  .00001502  00000+0  13624-3 0  9992
2 43816  97.6412 119.1930 0011981 301.9050  58.1006 14.96745886174656
SPACEBEE-5              
1 43817U 18099BM  22048.45222017  .00005548  00000+0  46363-3 0  9995
2 43817  97.6515 121.6444 0012194 293.4632  66.5309 14.98861228174781
SPACEBEE-6              
1 43818U 18099BN  22048.45590091  .00003083  00000+0  27002-3 0  9997
2 43818  97.6436 120.1330 0011908 297.2101  62.7907 14.97368817174874
SHIELDS 1               
1 43850U 18104B   22048.00879977  .00002429  00000+0  10260-3 0  9995
2 43850  85.0306 132.0869 0014098 358.2045   1.9144 15.22614144176173
STF-1                   
1 43852U 18104D   22047.69284441  .00006299  00000+0  25622-3 0  9994
2 43852  85.0343 132.8471 0013561  12.4460 347.7116 15.24232356176136
ZACUBE-2                
1 43907U 18111AH  22048.51681892  .00003690  00000+0  14474-3 0  9991
2 43907  97.2076 299.1083 0021740 141.1739 340.5825 15.26131675174992
LUME 1                  
1 43908U 18111AJ  22048.42857420  .00006572  00000+0  24190-3 0  9992
2 43908  97.2085 300.1081 0020685 137.4481 222.8366 15.27975562175055
AOBA VELOX-IV           
1 43940U 19003J   22048.38509189  .00017161  00000+0  57242-3 0  9990
2 43940  97.1468  88.2660 0019539 212.0964 147.9089 15.30946204171728
MOVE-IIB                
1 44398U 19038N   22047.91529388  .00008743  00000+0  46025-3 0  9990
2 44398  97.6120  16.5563 0022439 181.4436 178.6732 15.15653273144762
SONATE                  
1 44400U 19038Q   22048.36697162  .00003634  00000+0  20596-3 0  9999
2 44400  97.6244  16.5667 0024092 182.8266 177.2860 15.13403150144763
LUCKY-7                 
1 44406U 19038W   22048.42594851  .00003328  00000+0  18579-3 0  9991
2 44406  97.6246  17.0092 0023498 180.6016 179.5191 15.14019336144792
BEESAT 9                
1 44412U 19038AC  22047.90627573  .00005528  00000+0  30036-3 0  9994
2 44412  97.6220  16.6267 0021112 186.2270 173.8703 15.14731506144432
JAISAT-1                
1 44419U 19038F   22047.86398762  .00005815  00000+0  31168-3 0  9997
2 44419  97.6222  17.3260 0020148 183.8962 176.2116 15.15210384144781
DUCHIFAT-3              
1 44854U 19089C   22048.46822021  .00002919  00000+0  23544-3 0  9994
2 44854  36.9673  91.1302 0008678 321.6011  38.4096 15.00151431119901
EYESAT-NANO             
1 44877U 19092E   22048.06192197  .00007512  00000+0  35273-3 0  9999
2 44877  97.4605 233.5253 0013572  59.2849 300.9721 15.19833515120063
ORBITAL FACTORY 2 (OF-2)
1 45113U 19071C   22048.04302190  .00014101  00000+0  36150-3 0  9991
2 45113  51.6402 289.0315 0011302 102.5659 257.6590 15.39566578114798
M2 PATHFINDER           
1 45727U 20037E   22048.02306153  .00000655  00000+0  70653-4 0  9993
2 45727  97.7230 225.7658 0014013  76.4272 283.8497 14.91650209 88876
NETSAT-4                
1 46504U 20068U   22047.80994680  .00002389  00000+0  18351-3 0  9996
2 46504  97.7140 347.9951 0013649  24.5350 335.6521 15.02653643 75922
NETSAT-3                
1 46505U 20068V   22047.88890659  .00002638  00000+0  20238-3 0  9990
2 46505  97.7140 348.0115 0011991  33.0127 327.1831 15.02624199 75948
NETSAT-1                
1 46506U 20068W   22047.83500174  .00003149  00000+0  24103-3 0  9999
2 46506  97.7100 347.8986 0009735  38.2702 321.9212 15.02578981 75938
NETSAT-2                
1 46507U 20068X   22047.77572515  .00003489  00000+0  26676-3 0  9995
2 46507  97.7094 347.8355 0009168  42.5505 317.6431 15.02553697 75875
SPOC                    
1 46921U 98067RR  22048.11984560  .00060185  00000+0  59500-3 0  9993
2 46921  51.6369 188.8024 0002564 295.1819  64.8910 15.65283252 73004
BOBCAT-1                
1 46922U 98067RS  22047.90410472  .00137411  00000+0  83230-3 0  9990
2 46922  51.6363 180.6291 0004639 310.7501  49.3096 15.76618198 73064
NEUTRON-1               
1 46923U 98067RT  22048.09087371  .00056218  00000+0  55907-3 0  9995
2 46923  51.6376 189.3642 0002547 300.6653  59.4091 15.65163345 73027
DESCENT                 
1 46927U 98067RX  22048.08601929  .00059828  00000+0  58863-3 0  9993
2 46927  51.6376 189.3303 0002857 312.9073  47.1682 15.65405815 72931
SAI-1 NANOCONNECT-2     
1 47701U 21015C   22048.09562631 -.00000072  00000+0  00000+0 0  9994
2 47701  97.4370 125.8198 0009411 150.0821 210.1297 15.24501236 53860
WARP-01                 
1 47924U 98067SA  22047.70101349  .00094517  00000+0  84103-3 0  9990
2 47924  51.6350 197.2127 0005477 297.7754  62.2686 15.67699328 52857
RSP-01                  
1 47925U 98067SB  22047.85248788  .00059848  00000+0  63844-3 0  9993
2 47925  51.6382 199.0182 0002445 261.0614  99.0104 15.63358768 52821
TAUSAT-1                
1 47926U 98067SC  22047.67840962  .00095668  00000+0  83709-3 0  9998
2 47926  51.6381 196.3282 0003404 267.5394  92.5213 15.68117134 52839
TSURU                   
1 47927U 98067SD  22047.88606903  .00051522  00000+0  58491-3 0  9998
2 47927  51.6373 199.9866 0002216 253.7714 106.3036 15.61822455 52818
STARS-EC                
1 47928U 98067SE  22048.41640183  .00131136  00000+0  10599-2 0  9993
2 47928  51.6364 193.0043 0006439 305.4936  54.5460 15.69884403 52930
MAYA-2                  
1 47929U 98067SF  22047.88210716  .00052163  00000+0  59273-3 0  9994
2 47929  51.6376 199.9589 0002204 251.1360 108.9395 15.61793521 52773
HIROGARI (OPUSAT-II)    
1 47930U 98067SG  22048.42575263  .00129312  00000+0  99676-3 0  9990
2 47930  51.6353 191.5734 0003687 287.1676  72.8918 15.71044846 52977
GUARANISAT-1            
1 47931U 98067SH  22047.93965567  .00052993  00000+0  59956-3 0  9993
2 47931  51.6388 199.6045 0002240 250.9770 109.0982 15.61898695 52823
SMOG-1                  
1 47964U 21022AJ  22047.69627010  .00003728  00000+0  24363-3 0  9993
2 47964  97.5423 310.4807 0018847 185.2475 174.8559 15.08275621 48676
MMSATS-1                
1 47976U 98067SJ  22048.55833050  .00014880  00000+0  23576-3 0  9994
2 47976  51.6449 204.4329 0001816 273.4603  86.6178 15.53633472 51594
BCCSAT-1                
1 48041U 21022AK  22048.48487010  .00004183  00000+0  27812-3 0  9990
2 48041  97.5426 311.0040 0015447 179.5812 180.5432 15.07617472 48752
RAMSAT                  
1 48850U 98067SL  22047.86137814  .00032492  00000+0  45088-3 0  9995
2 48850  51.6388 206.5425 0003930 321.1256  38.9453 15.56726360 38472
SOAR                    
1 48851U 98067SM  22047.74347774  .00273845  00000+0  12789-2 0  9991
2 48851  51.6291 194.4009 0006909 302.3576  57.6757 15.81938510 38660
BD-28                   
1 48867U 98067SN  22048.12684963  .00035977  00000+0  48178-3 0  9999
2 48867  51.6374 204.5585 0002659 347.6471  12.4456 15.57636496 37277
MIR-SAT 1               
1 48868U 98067SP  22047.85119627  .00113640  00000+0  10177-2 0  9990
2 48868  51.6354 201.2084 0004504 305.0110  55.0463 15.67465073 37322
1998-067SR              
1 49272U 98067SR  22047.86531618  .00035209  00000+0  51533-3 0  9995
2 49272  51.6384 209.5516 0005031 232.1406 127.9130 15.55234410 20823
1998-067SS              
1 49273U 98067SS  22048.14411265  .00045342  00000+0  62889-3 0  9998
2 49273  51.6384 207.6650 0004958 234.4872 125.5658 15.56575965 20879
1998-067ST              
1 49274U 98067ST  22048.14914803  .00045071  00000+0  62736-3 0  9995
2 49274  51.6385 207.6983 0004875 233.0259 127.0287 15.56483340 20872
CUAVA-1                 
1 49275U 98067SU  22048.49208637  .00042158  00000+0  59494-3 0  9995
2 49275  51.6398 206.0126 0004759 243.2976 221.1730 15.56141812 20873
